{"type":"FeatureCollection","features":[{"type":"Feature","properties":{"Code_Ezor":26,"Name":"אילת - אילות"},"geometry":{"type":"Polygon","coordinates":[[[34.66526,30.39755],[34.67261,30.39822],[34.68636,30.38677],[34.69406,30.38789],[34.70638,30.38153],[34.70828,30.37052],[34.72532,30.36839],[34.74891,30.38042],[34.79145,30.3682],[34.81842,30.37312],[34.82239,30.37905],[34.81688,30.38325],[34.81743,30.39211],[34.82805,30.39827],[34.84413,30.38922],[34.8665,30.39841],[34.87372,30.39376],[34.90491,30.3923],[34.90976,30.38717],[34.91035,30.3749],[34.93345,30.35954],[34.94275,30.34523],[34.94105,30.35505],[34.9628,30.36645],[34.94811,30.33638],[34.95565,30.32114],[34.96629,30.31921],[34.96612,30.29752],[35.00203,30.27839],[35.02022,30.2768],[35.02085,30.27314],[35.06034,30.27664],[35.08147,30.28568],[35.09827,30.28657],[35.10111,30.2829],[35.13464,30.29926],[35.15131,30.2974],[35.14582,30.28213],[35.14968,30.25358],[35.14478,30.24165],[35.15113,30.20373],[35.14434,30.16262],[35.15479,30.15496],[35.15065,30.14364],[35.16083,30.13466],[35.15753,30.12866],[35.16185,30.12263],[35.14823,30.0871],[35.15152,30.08438],[35.14617,30.06333],[35.13059,30.06198],[35.11258,30.0397],[35.10037,30.01235],[35.10984,30.00965],[35.11005,30.00338],[35.11652,30.00136],[35.11549,29.99531],[35.09872,29.99162],[35.08856,29.9724],[35.09203,29.96986],[35.08874,29.96362],[35.07535,29.95033],[35.0836,29.94721],[35.07731,29.92508],[35.08163,29.92256],[35.08426,29.88569],[35.06176,29.8487],[35.04982,29.81911],[35.04397,29.78816],[35.03116,29.77593],[35.01144,29.69642],[35.02061,29.6722],[35.01916,29.65542],[35.01399,29.63884],[35.00051,29.62194],[34.97869,29.57694],[34.97792,29.5401],[34.95221,29.54556],[34.92884,29.51889],[34.93057,29.51219],[34.92169,29.5005],[34.90456,29.4874],[34.87851,29.5434],[34.86639,29.59723],[34.87697,29.61328],[34.87866,29.64359],[34.85663,29.68792],[34.84864,29.75874],[34.82606,29.8072],[34.61154,30.37103],[34.63169,30.38212],[34.64087,30.39619],[34.65047,30.40067],[34.66526,30.39755]]]}},{"type":"Feature","properties":{"Code_Ezor":23,"Name":"ניצנה"},"geometry":{"type":"Polygon","coordinates":[[[34.62273,31.13554],[34.64671,31.13796],[34.73832,31.13028],[34.78305,31.12044],[34.81219,31.12127],[34.82812,31.09474],[34.85452,31.0948],[34.86044,31.07922],[34.89139,31.08163],[34.88766,31.02916],[34.85864,31.00618],[34.85039,30.99184],[34.74849,30.92494],[34.71789,30.89905],[34.72138,30.86685],[34.75897,30.81329],[34.77604,30.75582],[34.50357,30.65367],[34.49705,30.67963],[34.40344,30.85928],[34.32525,31.05941],[34.41195,31.07854],[34.50811,31.11029],[34.58227,31.10825],[34.60858,31.1375],[34.61678,31.13331],[34.62273,31.13554]]]}},{"type":"Feature","properties":{"Code_Ezor":24,"Name":"מצפה רמון"},"geometry":{"type":"Polygon","coordinates":[[[34.94471,30.81836],[34.952,30.80739],[34.95748,30.81125],[34.9758,30.80115],[34.97264,30.77169],[34.97782,30.76539],[34.98358,30.76801],[34.9874,30.75237],[35.00019,30.74539],[34.99129,30.72733],[35.03334,30.72015],[35.03356,30.68868],[35.06524,30.65849],[35.06804,30.64874],[35.05559,30.64453],[35.06244,30.63563],[35.05267,30.63301],[35.0672,30.62476],[35.06772,30.6099],[35.05284,30.60813],[35.05738,30.59201],[35.04866,30.5773],[35.00127,30.57187],[34.98808,30.54877],[34.97435,30.53569],[34.97316,30.53031],[34.98106,30.52378],[34.98278,30.50586],[34.97275,30.50619],[34.97296,30.51215],[34.97116,30.51427],[34.95367,30.51746],[34.95102,30.51506],[34.94583,30.51957],[34.95345,30.50957],[34.95366,30.51695],[34.97101,30.51383],[34.9713,30.50745],[34.97441,30.50471],[34.96939,30.50122],[34.97426,30.49777],[34.95538,30.46441],[34.94025,30.46229],[34.93359,30.46799],[34.95138,30.37931],[34.9638,30.36691],[34.94105,30.35505],[34.94275,30.34523],[34.93345,30.35954],[34.91035,30.3749],[34.90689,30.39059],[34.8952,30.39499],[34.88838,30.39179],[34.8665,30.39841],[34.84413,30.38922],[34.82805,30.39827],[34.81743,30.39211],[34.81688,30.38325],[34.82239,30.37905],[34.81842,30.37312],[34.79145,30.3682],[34.74891,30.38042],[34.72532,30.36839],[34.70828,30.37052],[34.70689,30.38119],[34.69406,30.38789],[34.68636,30.38677],[34.67261,30.39822],[34.65047,30.40067],[34.64087,30.39619],[34.63169,30.38212],[34.61154,30.37103],[34.54352,30.41299],[34.54186,30.44204],[34.55764,30.49478],[34.51865,30.53253],[34.51888,30.59243],[34.50357,30.65367],[34.94471,30.81836]]]}},{"type":"Feature","properties":{"Code_Ezor":21,"Name":"ערד"},"geometry":{"type":"Polygon","coordinates":[[[35.44869,31.08253],[35.39453,31.08794],[35.21844,31.13637],[35.21429,31.17661],[35.15934,31.17315],[35.11422,31.14307],[35.11503,31.15817],[35.07179,31.17083],[35.08145,31.2226],[35.00432,31.22228],[35.00715,31.24323],[35.02328,31.26601],[35.03738,31.30469],[35.06231,31.31575],[35.0766,31.31691],[35.09518,31.33461],[35.09729,31.33841],[35.09147,31.34308],[35.10513,31.34767],[35.10909,31.35129],[35.10639,31.35459],[35.13473,31.35531],[35.15713,31.36323],[35.22894,31.37371],[35.30111,31.42827],[35.39833,31.49233],[35.42026,31.49633],[35.47601,31.49312],[35.47358,31.41091],[35.46656,31.38201],[35.45179,31.35031],[35.41064,31.28664],[35.39969,31.25124],[35.40455,31.22775],[35.4464,31.17227],[35.45474,31.15333],[35.45849,31.12098],[35.44869,31.08253]]]}},{"type":"Feature","properties":{"Code_Ezor":28,"Name":"הערבה"},"geometry":{"type":"Polygon","coordinates":[[[34.97432,30.82353],[35.00235,30.81362],[35.05154,30.83978],[35.08285,30.8657],[35.10183,30.86342],[35.12185,30.87683],[35.14731,30.87471],[35.16877,30.85711],[35.22224,30.83105],[35.3007,30.86197],[35.33264,30.86678],[35.3292,30.84143],[35.34037,30.81561],[35.33582,30.79923],[35.32209,30.79701],[35.31489,30.79034],[35.30835,30.76284],[35.29459,30.76223],[35.29425,30.7343],[35.28627,30.72279],[35.29397,30.71798],[35.29369,30.71299],[35.28189,30.71049],[35.26801,30.6844],[35.27066,30.68005],[35.26286,30.67255],[35.26615,30.66805],[35.26307,30.65909],[35.22159,30.61873],[35.20362,30.58193],[35.20359,30.54799],[35.19459,30.53338],[35.19284,30.49844],[35.1619,30.4408],[35.16486,30.40285],[35.19174,30.34583],[35.1547,30.30668],[35.15131,30.2974],[35.13464,30.29926],[35.10111,30.2829],[35.09827,30.28657],[35.08147,30.28568],[35.06034,30.27664],[35.02085,30.27314],[35.02022,30.2768],[35.00203,30.27839],[34.96612,30.29752],[34.96629,30.31921],[34.95565,30.32114],[34.94811,30.33638],[34.9638,30.36691],[34.95138,30.37931],[34.93359,30.46799],[34.94025,30.46229],[34.95538,30.46441],[34.97426,30.49777],[34.96939,30.50122],[34.97441,30.50471],[34.9713,30.50745],[34.97101,30.51383],[34.96905,30.51324],[34.96218,30.51546],[34.95925,30.51462],[34.95366,30.51695],[34.95345,30.50957],[34.94583,30.51957],[34.95102,30.51506],[34.95367,30.51746],[34.97116,30.51427],[34.97275,30.50619],[34.98164,30.50483],[34.98087,30.52441],[34.97317,30.53267],[34.98822,30.54896],[34.9985,30.56997],[35.0212,30.57666],[35.04715,30.57613],[35.05738,30.59201],[35.05284,30.60813],[35.06772,30.6099],[35.0672,30.62476],[35.05259,30.63342],[35.06244,30.63563],[35.05559,30.64453],[35.06804,30.64874],[35.06524,30.65849],[35.03356,30.68868],[35.03334,30.72015],[34.99265,30.72562],[35.00019,30.74539],[34.9874,30.75237],[34.98358,30.76801],[34.97782,30.76539],[34.97264,30.77169],[34.9758,30.80115],[34.95748,30.81125],[34.952,30.80739],[34.94473,30.81803],[34.97432,30.82353]]]}},{"type":"Feature","properties":{"Code_Ezor":22,"Name":"דימונה - ירוחם"},"geometry":{"type":"Polygon","coordinates":[[[35.39453,31.08794],[35.44869,31.08253],[35.42518,31.04577],[35.41682,31.00302],[35.41526,30.94976],[35.39296,30.9266],[35.37015,30.92664],[35.35395,30.90896],[35.33264,30.86678],[35.3007,30.86197],[35.22224,30.83105],[35.16877,30.85711],[35.14731,30.87471],[35.12185,30.87683],[35.10183,30.86342],[35.08285,30.8657],[35.05154,30.83978],[35.00235,30.81362],[34.97432,30.82353],[34.94475,30.81869],[34.77604,30.75582],[34.75897,30.81329],[34.72138,30.86685],[34.71789,30.89905],[34.72697,30.90982],[34.85039,30.99184],[34.85864,31.00618],[34.88766,31.02916],[34.89139,31.08163],[34.86044,31.07922],[34.85452,31.0948],[34.82812,31.09474],[34.80897,31.12881],[34.98063,31.16671],[34.97012,31.19362],[34.97008,31.21009],[34.97422,31.22155],[34.99327,31.23225],[35.00566,31.23583],[35.00432,31.22228],[35.08145,31.2226],[35.07179,31.17083],[35.11503,31.15817],[35.11422,31.14307],[35.15934,31.17315],[35.21429,31.17661],[35.21844,31.13637],[35.39453,31.08794]]]}},{"type":"Feature","properties":{"Code_Ezor":25,"Name":"נגב מערבי - תקומה"},"geometry":{"type":"Polygon","coordinates":[[[34.69488,31.24143],[34.69881,31.22718],[34.66326,31.20052],[34.66718,31.19821],[34.62189,31.13664],[34.6241,31.13425],[34.60858,31.1375],[34.58227,31.10825],[34.50811,31.11029],[34.41195,31.07854],[34.32525,31.05941],[34.26742,31.21982],[34.29191,31.24089],[34.32554,31.25734],[34.34347,31.27827],[34.36729,31.29005],[34.3737,31.30668],[34.36561,31.36364],[34.37938,31.38613],[34.40969,31.41619],[34.46194,31.45626],[34.47795,31.47614],[34.50974,31.49732],[34.54693,31.51218],[34.5656,31.53392],[34.56775,31.54147],[34.55309,31.55137],[34.55331,31.55753],[34.54893,31.55428],[34.48794,31.59681],[34.5015,31.61596],[34.52598,31.6104],[34.55234,31.61422],[34.58892,31.6355],[34.58581,31.62787],[34.59153,31.62939],[34.59772,31.62356],[34.59227,31.61816],[34.62702,31.60097],[34.61933,31.58606],[34.62301,31.5808],[34.64394,31.56886],[34.65981,31.57128],[34.65582,31.55252],[34.66297,31.54776],[34.68696,31.54944],[34.69948,31.53088],[34.70953,31.53684],[34.71111,31.53222],[34.71864,31.53118],[34.72052,31.52537],[34.71332,31.51372],[34.72099,31.50744],[34.71957,31.49943],[34.73664,31.4984],[34.74912,31.48718],[34.75446,31.4915],[34.74671,31.48208],[34.73816,31.49112],[34.73298,31.48585],[34.73054,31.48008],[34.73635,31.46358],[34.7363,31.45469],[34.73007,31.45126],[34.73284,31.44212],[34.70611,31.44108],[34.70226,31.43454],[34.69078,31.43],[34.69332,31.41767],[34.67846,31.4036],[34.68229,31.37375],[34.67418,31.36485],[34.70004,31.33083],[34.70936,31.30396],[34.69572,31.28846],[34.69878,31.27551],[34.69236,31.27109],[34.69381,31.25631],[34.70086,31.25419],[34.6988,31.24042],[34.69488,31.24143]]]}},{"type":"Feature","properties":{"Code_Ezor":20,"Name":"באר שבע"},"geometry":{"type":"Polygon","coordinates":[[[34.69461,31.23539],[34.70086,31.25419],[34.69381,31.25631],[34.69236,31.27109],[34.69878,31.27551],[34.69572,31.28846],[34.70936,31.30396],[34.70004,31.33083],[34.67418,31.36485],[34.6824,31.37487],[34.67736,31.39727],[34.67846,31.4036],[34.69332,31.41767],[34.69078,31.43],[34.71044,31.44392],[34.73284,31.44212],[34.73007,31.45126],[34.7363,31.45469],[34.73635,31.46358],[34.73054,31.48008],[34.76521,31.48309],[34.77963,31.46102],[34.82394,31.44521],[34.84215,31.42509],[34.86929,31.41277],[34.87445,31.41309],[34.86594,31.43823],[34.90127,31.43786],[34.88006,31.39233],[34.89233,31.36867],[34.90972,31.3565],[34.90741,31.34322],[34.91502,31.33992],[34.91773,31.34478],[34.92917,31.33825],[34.93313,31.3464],[34.94701,31.35003],[35.02092,31.35924],[35.11061,31.35678],[35.10513,31.34767],[35.09147,31.34308],[35.09729,31.33841],[35.09518,31.33461],[35.0766,31.31691],[35.06231,31.31575],[35.03738,31.30469],[35.02328,31.26601],[35.006,31.23618],[34.97422,31.22155],[34.97012,31.19362],[34.98063,31.16671],[34.96575,31.1615],[34.80897,31.12881],[34.81219,31.12127],[34.80547,31.11926],[34.73832,31.13028],[34.62467,31.13829],[34.66718,31.19821],[34.66269,31.19953],[34.66778,31.20605],[34.69348,31.21963],[34.6989,31.22739],[34.69853,31.23539],[34.69461,31.23539]]]}},{"type":"Feature","properties":{"Code_Ezor":19,"Name":"אשקלון  - קרית גת"},"geometry":{"type":"Polygon","coordinates":[[[34.66322,31.54778],[34.65582,31.55252],[34.65981,31.57128],[34.64394,31.56886],[34.62301,31.5808],[34.61933,31.58606],[34.62702,31.60097],[34.59227,31.61816],[34.59772,31.62356],[34.59153,31.62939],[34.58581,31.62787],[34.58892,31.6355],[34.55937,31.61606],[34.52598,31.6104],[34.5015,31.61596],[34.5106,31.62881],[34.49204,31.63419],[34.49319,31.63766],[34.51209,31.6331],[34.51307,31.63967],[34.52215,31.64366],[34.56,31.69276],[34.60973,31.77017],[34.63772,31.76333],[34.6389,31.75751],[34.64802,31.75315],[34.66446,31.76661],[34.67059,31.78013],[34.68469,31.782],[34.70578,31.76962],[34.72613,31.76655],[34.73661,31.77012],[34.74758,31.76234],[34.77841,31.7748],[34.77546,31.78794],[34.77976,31.79512],[34.78742,31.79362],[34.82393,31.80514],[34.83608,31.79899],[34.82025,31.78851],[34.83879,31.78067],[34.84387,31.76161],[34.83975,31.75615],[34.87539,31.749],[34.85936,31.73188],[34.86976,31.72304],[34.87165,31.71483],[34.8661,31.70247],[34.86901,31.69937],[34.86378,31.69467],[34.87237,31.68962],[34.8661,31.68413],[34.86599,31.66819],[34.8802,31.66733],[34.87769,31.65445],[34.9274,31.61724],[34.9493,31.61386],[34.96096,31.60299],[34.95221,31.59455],[34.94675,31.57831],[34.94002,31.52398],[34.94397,31.50512],[34.92797,31.47011],[34.90127,31.43786],[34.86594,31.43823],[34.87445,31.41309],[34.86929,31.41277],[34.84215,31.42509],[34.82394,31.44521],[34.77963,31.46102],[34.76521,31.48309],[34.73054,31.48008],[34.73807,31.49114],[34.74671,31.48208],[34.75446,31.4915],[34.74912,31.48718],[34.73664,31.4984],[34.71957,31.49943],[34.72099,31.50744],[34.71332,31.51372],[34.72052,31.52537],[34.71864,31.53118],[34.71111,31.53222],[34.70953,31.53684],[34.69948,31.53088],[34.68696,31.54944],[34.66322,31.54778]]]}},{"type":"Feature","properties":{"Code_Ezor":18,"Name":"אשדוד"},"geometry":{"type":"Polygon","coordinates":[[[34.75418,31.8564],[34.76704,31.83364],[34.78404,31.83594],[34.80581,31.82918],[34.8144,31.82096],[34.83022,31.81848],[34.83553,31.82469],[34.84527,31.82593],[34.84744,31.82234],[34.8495,31.82686],[34.86268,31.82742],[34.87179,31.80876],[34.83608,31.79899],[34.82393,31.80514],[34.78742,31.79362],[34.77976,31.79512],[34.77546,31.78794],[34.77841,31.7748],[34.74758,31.76234],[34.73661,31.77012],[34.72613,31.76655],[34.70578,31.76962],[34.68469,31.782],[34.67059,31.78013],[34.66446,31.76661],[34.64802,31.75315],[34.6389,31.75751],[34.63772,31.76333],[34.60917,31.76931],[34.629,31.80613],[34.62398,31.80761],[34.62789,31.81715],[34.61136,31.82327],[34.62077,31.84159],[34.63308,31.84171],[34.64267,31.87282],[34.66048,31.86399],[34.67199,31.88772],[34.67632,31.8862],[34.68287,31.89904],[34.67834,31.90083],[34.70567,31.94672],[34.72345,31.94762],[34.72492,31.94147],[34.7325,31.94182],[34.7327,31.93319],[34.7382,31.92937],[34.74041,31.93582],[34.7505,31.93282],[34.74147,31.91405],[34.72704,31.91607],[34.73037,31.90696],[34.76259,31.89891],[34.75124,31.88067],[34.75418,31.8564]]]}},{"type":"Feature","properties":{"Code_Ezor":15,"Name":"מודיעין"},"geometry":{"type":"Polygon","coordinates":[[[34.87174,31.80886],[34.86257,31.82743],[34.86933,31.85296],[34.86624,31.85772],[34.87,31.87083],[34.86673,31.87237],[34.86952,31.87564],[34.88512,31.87237],[34.88753,31.87947],[34.89234,31.87969],[34.88373,31.90136],[34.88825,31.90988],[34.89645,31.90936],[34.89532,31.92305],[34.89882,31.92677],[34.91604,31.92342],[34.92302,31.92993],[34.932,31.92732],[34.93571,31.93597],[34.92906,31.93921],[34.93587,31.93823],[34.93796,31.94288],[34.92725,31.94439],[34.92891,31.95061],[34.9371,31.95267],[34.93578,31.95596],[34.94034,31.95335],[34.94615,31.97163],[34.96177,31.9652],[34.9584,31.9703],[34.96285,31.96949],[34.95951,31.97388],[34.96369,31.97669],[34.95525,31.98638],[34.96742,31.99242],[34.96779,32.00137],[34.95446,32.0045],[34.9621,32.00565],[34.95868,32.01344],[34.96602,32.01456],[34.96587,32.0183],[34.96416,32.02247],[34.94714,32.01854],[34.94595,32.04326],[34.96655,32.04423],[34.96807,32.05091],[34.99964,32.05186],[35.0052,32.02185],[34.99956,32.01748],[34.99408,31.97278],[34.98685,31.9706],[34.99464,31.95557],[35.0088,31.94365],[35.00318,31.93484],[35.01371,31.92715],[35.02852,31.92522],[35.03581,31.91657],[35.03915,31.88587],[35.03369,31.85898],[34.96159,31.85445],[34.93813,31.84883],[34.93358,31.8406],[34.92464,31.84271],[34.91009,31.83181],[34.9169,31.81508],[34.87174,31.80886]]]}},{"type":"Feature","properties":{"Code_Ezor":16,"Name":"ירושלים"},"geometry":{"type":"Polygon","coordinates":[[[35.07752,31.73985],[35.07248,31.74748],[35.0409,31.76128],[35.0272,31.77248],[35.02382,31.7844],[35.02429,31.83044],[35.0567,31.85541],[35.08331,31.85236],[35.09719,31.83414],[35.1073,31.83285],[35.13681,31.81509],[35.18125,31.80828],[35.18763,31.80937],[35.18181,31.82081],[35.18415,31.82594],[35.20672,31.82337],[35.20984,31.81713],[35.21513,31.81904],[35.21454,31.85075],[35.20418,31.87257],[35.20705,31.88166],[35.22022,31.88266],[35.23008,31.84265],[35.25105,31.8439],[35.25707,31.83829],[35.25117,31.83046],[35.26505,31.82554],[35.25538,31.81284],[35.263,31.78996],[35.25175,31.77025],[35.26337,31.74857],[35.25155,31.73884],[35.24979,31.7255],[35.23908,31.70962],[35.22853,31.71756],[35.21904,31.71558],[35.20576,31.72361],[35.17977,31.72054],[35.16501,31.73235],[35.15087,31.73667],[35.13969,31.72884],[35.13114,31.73302],[35.12008,31.71501],[35.10699,31.71517],[35.09851,31.70692],[35.08652,31.71441],[35.08721,31.72144],[35.08071,31.71945],[35.0871,31.7247],[35.07752,31.73985]]]}},{"type":"Feature","properties":{"Code_Ezor":17,"Name":"בית שמש"},"geometry":{"type":"Polygon","coordinates":[[[34.86448,31.80718],[34.9169,31.81508],[34.91009,31.83181],[34.92464,31.84271],[34.93358,31.8406],[34.93813,31.84883],[34.96159,31.85445],[34.99924,31.85417],[34.97807,31.83733],[34.97778,31.8326],[35.02429,31.83044],[35.0272,31.77248],[35.0409,31.76128],[35.07248,31.74748],[35.0871,31.7247],[35.08071,31.71945],[35.08721,31.72144],[35.08652,31.71441],[35.09852,31.70693],[35.0849,31.69046],[35.03056,31.6602],[35.00384,31.6507],[34.96105,31.60303],[34.9493,31.61386],[34.9274,31.61724],[34.87769,31.65445],[34.8802,31.66733],[34.86599,31.66819],[34.8661,31.68413],[34.87237,31.68962],[34.86378,31.69467],[34.86901,31.69937],[34.8661,31.70247],[34.87165,31.71483],[34.86976,31.72304],[34.85936,31.73188],[34.87539,31.749],[34.83975,31.75615],[34.84387,31.76161],[34.83879,31.78067],[34.82025,31.78851],[34.84269,31.80294],[34.86448,31.80718]]]}},{"type":"Feature","properties":{"Code_Ezor":13,"Name":"ראשון לציון"},"geometry":{"type":"Polygon","coordinates":[[[34.75819,31.85142],[34.75124,31.88067],[34.76259,31.89891],[34.73037,31.90696],[34.72704,31.91607],[34.74147,31.91405],[34.7505,31.93282],[34.74041,31.93582],[34.7382,31.92937],[34.7327,31.93319],[34.7325,31.94182],[34.72492,31.94147],[34.72345,31.94762],[34.70567,31.94672],[34.72876,32.00484],[34.74489,31.99749],[34.74609,32.00103],[34.74643,31.99598],[34.75822,31.99248],[34.76498,31.9967],[34.79637,31.98871],[34.79998,31.99595],[34.80739,31.99428],[34.82148,32.01827],[34.84819,31.99783],[34.85772,31.99573],[34.86396,32.00069],[34.86809,31.99316],[34.87915,31.99525],[34.9068,31.97899],[34.90535,31.97475],[34.94139,31.96137],[34.94034,31.95335],[34.93578,31.95596],[34.9371,31.95267],[34.92733,31.94707],[34.93788,31.94324],[34.93587,31.93823],[34.92906,31.93921],[34.93571,31.93597],[34.93546,31.93],[34.92463,31.9268],[34.92294,31.92992],[34.9138,31.92294],[34.89882,31.92677],[34.89532,31.92305],[34.89645,31.90936],[34.88825,31.90988],[34.88373,31.90136],[34.89234,31.87969],[34.88753,31.87947],[34.88512,31.87237],[34.86952,31.87564],[34.86675,31.87242],[34.87,31.87083],[34.86624,31.85772],[34.86933,31.85296],[34.86257,31.82743],[34.81979,31.81943],[34.78404,31.83594],[34.76704,31.83364],[34.76184,31.83719],[34.75819,31.85142]]]}},{"type":"Feature","properties":{"Code_Ezor":14,"Name":"פ\"ת - ראש העין"},"geometry":{"type":"Polygon","coordinates":[[[34.9459,32.11458],[34.94715,32.13057],[34.95729,32.13008],[34.95806,32.1356],[34.97915,32.13573],[34.98872,32.13414],[34.98524,32.12576],[34.9938,32.10939],[34.98251,32.08956],[34.98631,32.08978],[34.99964,32.05186],[34.96807,32.05091],[34.96655,32.04423],[34.95717,32.04541],[34.95415,32.04123],[34.94893,32.04424],[34.94377,32.03806],[34.94714,32.01854],[34.96416,32.02247],[34.96587,32.0183],[34.96602,32.01456],[34.95868,32.01344],[34.9621,32.00565],[34.95446,32.0045],[34.96779,32.00137],[34.96742,31.99242],[34.95525,31.98638],[34.96369,31.97669],[34.95951,31.97388],[34.96285,31.96949],[34.9584,31.9703],[34.96177,31.9652],[34.94615,31.97163],[34.9408,31.96109],[34.91933,31.96776],[34.87985,31.99493],[34.86809,31.99316],[34.86396,32.00069],[34.85137,31.9964],[34.82148,32.01827],[34.8299,32.03807],[34.84583,32.03608],[34.85475,32.05043],[34.84672,32.06201],[34.83666,32.06108],[34.84505,32.06531],[34.84554,32.07126],[34.85029,32.06934],[34.85121,32.07321],[34.84327,32.07282],[34.85072,32.11359],[34.86096,32.11245],[34.87157,32.12627],[34.87456,32.12009],[34.88034,32.12714],[34.89071,32.12331],[34.8927,32.11714],[34.89311,32.12275],[34.9116,32.12705],[34.91354,32.11543],[34.92494,32.10091],[34.93294,32.09872],[34.93784,32.1123],[34.9459,32.11458]]]}},{"type":"Feature","properties":{"Code_Ezor":12,"Name":"תל-אביב"},"geometry":{"type":"Polygon","coordinates":[[[34.79712,32.12862],[34.80447,32.1307],[34.81116,32.12443],[34.82357,32.12327],[34.81952,32.13068],[34.82759,32.13036],[34.85226,32.1194],[34.84327,32.07282],[34.85121,32.07321],[34.85029,32.06934],[34.84554,32.07126],[34.84505,32.06531],[34.83666,32.06108],[34.84672,32.06201],[34.85475,32.05043],[34.84583,32.03608],[34.8299,32.03807],[34.82769,32.02658],[34.80739,31.99428],[34.79998,31.99595],[34.79258,31.98875],[34.76498,31.9967],[34.75822,31.99248],[34.74821,31.99526],[34.74609,32.00103],[34.74489,31.99749],[34.72876,32.00484],[34.74079,32.04798],[34.75403,32.06057],[34.78765,32.14697],[34.80244,32.14402],[34.79712,32.12862]]]}},{"type":"Feature","properties":{"Code_Ezor":11,"Name":"כפ\"ס - רעננה - הרצליה"},"geometry":{"type":"Polygon","coordinates":[[[34.9459,32.11458],[34.93784,32.1123],[34.93294,32.09872],[34.92494,32.10091],[34.91354,32.11543],[34.91165,32.12704],[34.89311,32.12275],[34.8927,32.11714],[34.89071,32.12331],[34.88034,32.12714],[34.87456,32.12009],[34.87157,32.12627],[34.85781,32.11193],[34.85077,32.1136],[34.85226,32.1194],[34.82759,32.13036],[34.81952,32.13068],[34.82357,32.12327],[34.81116,32.12443],[34.80447,32.1307],[34.7956,32.1287],[34.80244,32.14402],[34.78765,32.14697],[34.78924,32.16377],[34.80887,32.21278],[34.83272,32.20997],[34.84271,32.20238],[34.84096,32.19901],[34.84632,32.19904],[34.85006,32.20705],[34.86571,32.20882],[34.87134,32.20777],[34.87225,32.19889],[34.88066,32.19946],[34.88152,32.20968],[34.8866,32.20094],[34.90108,32.19773],[34.89766,32.19256],[34.90378,32.19078],[34.91226,32.19611],[34.93142,32.18633],[34.93438,32.19487],[34.95636,32.19045],[34.96402,32.16891],[34.9773,32.15889],[34.97429,32.15231],[34.9905,32.14324],[34.98872,32.13414],[34.95806,32.1356],[34.95729,32.13008],[34.94715,32.13057],[34.9459,32.11458]]]}},{"type":"Feature","properties":{"Code_Ezor":10,"Name":"נתניה"},"geometry":{"type":"Polygon","coordinates":[[[34.80887,32.21278],[34.86448,32.41238],[34.91027,32.40368],[34.91274,32.41154],[34.91934,32.41274],[34.97965,32.40572],[34.99683,32.39348],[35.00228,32.38236],[35.01496,32.3802],[35.0177,32.37511],[35.02923,32.37219],[35.03196,32.37615],[35.04946,32.3763],[35.05085,32.36428],[35.04108,32.35528],[35.04184,32.34668],[35.02857,32.34674],[35.02702,32.33997],[35.01657,32.33867],[35.0097,32.28076],[35.01953,32.27986],[35.02996,32.26529],[35.01926,32.24206],[35.02029,32.23436],[35.01136,32.23309],[34.98796,32.20681],[34.96304,32.19975],[34.95721,32.19019],[34.93438,32.19487],[34.93142,32.18633],[34.91226,32.19611],[34.90712,32.19055],[34.89766,32.19256],[34.90108,32.19773],[34.8866,32.20094],[34.88152,32.20968],[34.88066,32.19946],[34.87225,32.19889],[34.87134,32.20777],[34.86571,32.20882],[34.85006,32.20705],[34.84632,32.19904],[34.84096,32.19901],[34.84271,32.20238],[34.83272,32.20997],[34.80887,32.21278]]]}},{"type":"Feature","properties":{"Code_Ezor":9,"Name":"חדרה"},"geometry":{"type":"Polygon","coordinates":[[[35.18218,32.55693],[35.19621,32.55216],[35.20352,32.54274],[35.2103,32.54303],[35.19666,32.53557],[35.18709,32.52349],[35.18011,32.52409],[35.1606,32.50419],[35.10896,32.47603],[35.0924,32.47623],[35.07568,32.46195],[35.06534,32.44942],[35.05333,32.41612],[35.05387,32.40279],[35.04018,32.38064],[35.04221,32.37781],[35.02923,32.37219],[35.0177,32.37511],[35.01496,32.3802],[35.00228,32.38236],[34.99683,32.39348],[34.97965,32.40572],[34.91934,32.41274],[34.91274,32.41154],[34.91027,32.40368],[34.86448,32.41238],[34.87886,32.46266],[34.86241,32.46379],[34.86236,32.47686],[34.88184,32.47701],[34.8846,32.50418],[34.8938,32.51816],[34.90969,32.58461],[34.91071,32.6171],[34.91528,32.62514],[34.93103,32.62459],[34.93094,32.61956],[34.96547,32.61003],[34.97814,32.61851],[34.98748,32.60765],[34.98114,32.60139],[34.98965,32.59305],[34.98622,32.58908],[34.99677,32.58767],[35.00184,32.57998],[35.01123,32.58635],[35.01782,32.57978],[35.03043,32.58483],[35.03143,32.59284],[35.0364,32.59153],[35.028,32.60303],[35.04033,32.6041],[35.05082,32.61568],[35.06917,32.62053],[35.07046,32.61211],[35.0757,32.61983],[35.09192,32.62313],[35.08709,32.62851],[35.09245,32.62788],[35.09303,32.63243],[35.09918,32.62782],[35.11458,32.62881],[35.14533,32.58883],[35.18218,32.55693]]]}},{"type":"Feature","properties":{"Code_Ezor":7,"Name":"חיפה"},"geometry":{"type":"Polygon","coordinates":[[[35.1784,32.91133],[35.18846,32.89529],[35.19441,32.89563],[35.20407,32.88402],[35.21971,32.87881],[35.22489,32.86305],[35.22085,32.85902],[35.23305,32.85016],[35.22293,32.84486],[35.23552,32.84366],[35.22573,32.82724],[35.22962,32.81947],[35.21847,32.81903],[35.21004,32.8255],[35.20224,32.81278],[35.2012,32.80286],[35.21523,32.79229],[35.21277,32.77329],[35.20221,32.76738],[35.16431,32.76894],[35.16607,32.74686],[35.17206,32.74668],[35.16228,32.74391],[35.15869,32.73651],[35.16396,32.72478],[35.17442,32.72541],[35.17571,32.71438],[35.18241,32.7147],[35.17271,32.6991],[35.16507,32.69596],[35.15166,32.70146],[35.14515,32.68538],[35.12923,32.67551],[35.14987,32.65592],[35.14212,32.64159],[35.1401,32.64487],[35.13027,32.63945],[35.13348,32.63226],[35.13019,32.63034],[35.12089,32.64197],[35.11255,32.62715],[35.09303,32.63243],[35.09245,32.62788],[35.08709,32.62851],[35.09192,32.62313],[35.0757,32.61983],[35.07046,32.61211],[35.06917,32.62053],[35.05082,32.61568],[35.04033,32.6041],[35.028,32.60303],[35.0364,32.59153],[35.03143,32.59284],[35.03043,32.58483],[35.01782,32.57978],[35.01123,32.58635],[35.00184,32.57998],[34.99677,32.58767],[34.98622,32.58908],[34.98965,32.59305],[34.98114,32.60139],[34.98748,32.60765],[34.97814,32.61851],[34.96547,32.61003],[34.93094,32.61956],[34.93103,32.62459],[34.91528,32.62514],[34.92493,32.67436],[34.92331,32.69961],[34.92842,32.70953],[34.93823,32.712],[34.94365,32.73325],[34.94989,32.78382],[34.9486,32.82648],[34.96459,32.83823],[34.97527,32.83825],[35.00595,32.82577],[35.02218,32.83014],[35.02337,32.81733],[35.03187,32.81739],[35.05051,32.83291],[35.0463,32.83566],[35.06311,32.86328],[35.06801,32.86173],[35.07724,32.88764],[35.09135,32.88634],[35.09508,32.88802],[35.09329,32.89767],[35.10558,32.89458],[35.11024,32.90019],[35.11825,32.88718],[35.12725,32.8854],[35.12698,32.89083],[35.13949,32.88707],[35.13917,32.89629],[35.15464,32.91273],[35.1784,32.91133]]]}},{"type":"Feature","properties":{"Code_Ezor":8,"Name":"עפולה"},"geometry":{"type":"Polygon","coordinates":[[[35.21183,32.71491],[35.21631,32.70028],[35.22853,32.69214],[35.24822,32.69307],[35.25588,32.69791],[35.25671,32.69254],[35.2636,32.69103],[35.25789,32.68018],[35.26427,32.67867],[35.26657,32.66922],[35.28406,32.67732],[35.2883,32.67279],[35.30568,32.68616],[35.31473,32.68334],[35.30775,32.67491],[35.3172,32.67242],[35.31595,32.66063],[35.32377,32.66291],[35.31976,32.65233],[35.32219,32.64181],[35.33048,32.63938],[35.34396,32.63993],[35.35676,32.64702],[35.37533,32.64043],[35.3789,32.65226],[35.39154,32.65704],[35.3921,32.64222],[35.38374,32.64427],[35.38878,32.64051],[35.38492,32.63808],[35.38797,32.63379],[35.39621,32.63836],[35.39662,32.64363],[35.41108,32.64567],[35.42468,32.65576],[35.42465,32.6499],[35.4347,32.64635],[35.43707,32.63845],[35.45146,32.65788],[35.4539,32.65318],[35.47055,32.65239],[35.46694,32.63223],[35.48494,32.62271],[35.49277,32.62411],[35.50231,32.61708],[35.5292,32.61216],[35.53323,32.6098],[35.53031,32.60564],[35.54101,32.60754],[35.54007,32.61219],[35.5726,32.60956],[35.5663,32.60057],[35.56745,32.59632],[35.57819,32.59698],[35.57658,32.56789],[35.57026,32.56495],[35.57732,32.55242],[35.56858,32.5512],[35.5717,32.54033],[35.56636,32.53914],[35.56114,32.54498],[35.55924,32.53187],[35.56712,32.52479],[35.55556,32.52137],[35.55265,32.51473],[35.56016,32.50736],[35.56249,32.51457],[35.56451,32.50729],[35.55808,32.50258],[35.57605,32.49667],[35.58031,32.48766],[35.56553,32.48116],[35.57,32.47717],[35.56463,32.47428],[35.5675,32.46958],[35.56232,32.46354],[35.57398,32.45874],[35.56647,32.45292],[35.56606,32.43596],[35.5582,32.43617],[35.55562,32.43066],[35.56238,32.42398],[35.55297,32.42597],[35.55175,32.42223],[35.55919,32.4185],[35.55652,32.41522],[35.5614,32.411],[35.55758,32.40764],[35.56043,32.40091],[35.55385,32.39991],[35.5509,32.40404],[35.5465,32.4008],[35.55502,32.38913],[35.54122,32.38713],[35.49326,32.40176],[35.4785,32.41088],[35.45393,32.41258],[35.44108,32.40601],[35.42015,32.41631],[35.41185,32.43487],[35.42034,32.45903],[35.40826,32.47931],[35.40251,32.50136],[35.38451,32.50498],[35.35735,32.51872],[35.29019,32.51039],[35.25226,32.52319],[35.22459,32.55238],[35.20352,32.54274],[35.17746,32.56463],[35.17067,32.56317],[35.13489,32.60076],[35.11458,32.62881],[35.1148,32.63563],[35.12089,32.64197],[35.13019,32.63034],[35.13348,32.63226],[35.13027,32.63945],[35.1401,32.64487],[35.14212,32.64159],[35.14998,32.65496],[35.12923,32.67551],[35.14515,32.68538],[35.15166,32.70146],[35.16507,32.69596],[35.17822,32.70564],[35.18356,32.70337],[35.18476,32.69101],[35.20003,32.70915],[35.21437,32.71799],[35.21183,32.71491]]]}},{"type":"Feature","properties":{"Code_Ezor":5,"Name":"גליל צפון מזרחי"},"geometry":{"type":"Polygon","coordinates":[[[35.57224,33.11064],[35.56072,33.08616],[35.54467,33.0825],[35.53802,33.09209],[35.52505,33.09545],[35.51999,33.08664],[35.51191,33.09166],[35.50515,33.08144],[35.4977,33.08137],[35.4956,33.08711],[35.49495,33.09146],[35.50362,33.08949],[35.50264,33.11446],[35.51985,33.11617],[35.53212,33.13366],[35.52635,33.13899],[35.54239,33.19848],[35.53693,33.20881],[35.53745,33.23255],[35.54686,33.23794],[35.54639,33.25453],[35.55582,33.25821],[35.56418,33.27318],[35.56458,33.28828],[35.5683,33.2909],[35.5846,33.28198],[35.58516,33.26586],[35.59936,33.25371],[35.6244,33.24227],[35.62356,33.25244],[35.61915,33.25526],[35.62298,33.26],[35.62178,33.27245],[35.64297,33.28045],[35.65884,33.27407],[35.707,33.3053],[35.71946,33.32824],[35.74518,33.32521],[35.77245,33.33515],[35.81334,33.31765],[35.77691,33.27715],[35.78624,33.26566],[35.8147,33.2481],[35.81534,33.20395],[35.83688,33.19356],[35.83976,33.16202],[35.81124,33.15867],[35.77058,33.13968],[35.73483,33.13909],[35.68487,33.12298],[35.67194,33.13204],[35.66647,33.14638],[35.65283,33.12297],[35.65171,33.10834],[35.61905,33.11368],[35.60426,33.12337],[35.59625,33.12329],[35.59571,33.11141],[35.57224,33.11064]]]}},{"type":"Feature","properties":{"Code_Ezor":27,"Name":"קצרין"},"geometry":{"type":"Polygon","coordinates":[[[35.83217,33.15043],[35.81756,33.12786],[35.81728,33.11401],[35.84943,33.10123],[35.87117,32.98345],[35.89538,32.94513],[35.87302,32.92298],[35.85057,32.88934],[35.84341,32.86988],[35.84553,32.8555],[35.83568,32.82805],[35.7485,32.73364],[35.7366,32.73309],[35.73234,32.72358],[35.72699,32.72739],[35.72345,32.7219],[35.71818,32.72366],[35.71661,32.71614],[35.71116,32.71866],[35.67584,32.70588],[35.67201,32.69103],[35.64399,32.68318],[35.63562,32.6878],[35.63765,32.7052],[35.64984,32.71459],[35.66246,32.77718],[35.65485,32.79283],[35.65568,32.80843],[35.64565,32.81035],[35.6505,32.81885],[35.65059,32.86766],[35.66121,32.8848],[35.65738,32.89549],[35.64691,32.90335],[35.63368,32.90475],[35.63303,32.91964],[35.64042,32.92393],[35.63384,32.938],[35.63869,32.9576],[35.62506,32.95913],[35.62427,32.96605],[35.61778,32.96829],[35.61123,32.98828],[35.61265,32.99798],[35.62138,32.99736],[35.61656,33.00256],[35.61903,33.01398],[35.60507,33.01663],[35.62027,33.03072],[35.60887,33.02797],[35.60367,33.03436],[35.62653,33.04308],[35.61627,33.05606],[35.6383,33.06958],[35.62182,33.06761],[35.6114,33.07748],[35.61212,33.10202],[35.59639,33.10133],[35.59245,33.10622],[35.59625,33.12329],[35.60426,33.12337],[35.61905,33.11368],[35.65171,33.10834],[35.65283,33.12297],[35.66647,33.14638],[35.67194,33.13204],[35.68461,33.12297],[35.73555,33.13923],[35.77058,33.13968],[35.81124,33.15867],[35.83976,33.16202],[35.83217,33.15043]]]}},{"type":"Feature","properties":{"Code_Ezor":4,"Name":"צפת - ראש פינה - חצור"},"geometry":{"type":"Polygon","coordinates":[[[35.59417,33.11039],[35.59639,33.10133],[35.61212,33.10202],[35.6114,33.07748],[35.62182,33.06761],[35.6383,33.06958],[35.61627,33.05606],[35.62653,33.04308],[35.60367,33.03436],[35.60887,33.02797],[35.62027,33.03072],[35.60507,33.01663],[35.61903,33.01398],[35.61656,33.00256],[35.62138,32.99736],[35.61265,32.99798],[35.61124,32.98819],[35.61778,32.96829],[35.62427,32.96605],[35.62618,32.95341],[35.62436,32.9403],[35.61447,32.94162],[35.6106,32.92552],[35.5862,32.91684],[35.58867,32.91203],[35.57571,32.89715],[35.56514,32.89994],[35.53913,32.89329],[35.52717,32.87692],[35.5211,32.87738],[35.52338,32.88609],[35.50049,32.88707],[35.47894,32.89892],[35.47987,32.88917],[35.46844,32.89463],[35.4788,32.88738],[35.47401,32.87851],[35.48729,32.86986],[35.48287,32.86921],[35.48596,32.85707],[35.47444,32.8538],[35.44512,32.85608],[35.44794,32.85937],[35.43153,32.86844],[35.42694,32.85763],[35.42052,32.8612],[35.41537,32.87774],[35.42209,32.87145],[35.4259,32.87728],[35.43375,32.87666],[35.43568,32.88196],[35.4314,32.88883],[35.43552,32.89019],[35.42951,32.89061],[35.42745,32.89757],[35.38772,32.89982],[35.38851,32.89142],[35.3762,32.89485],[35.37619,32.90528],[35.3877,32.91091],[35.38552,32.91699],[35.40208,32.91343],[35.4154,32.93368],[35.40825,32.93151],[35.38723,32.94158],[35.38842,32.94496],[35.39464,32.95],[35.42307,32.95043],[35.42763,32.96355],[35.41582,32.99434],[35.39231,33.00652],[35.3735,33.00484],[35.36383,33.03631],[35.37976,33.04446],[35.37735,33.05356],[35.38231,33.06138],[35.43102,33.06585],[35.44581,33.09066],[35.45559,33.09241],[35.49495,33.09146],[35.4977,33.08137],[35.50853,33.08377],[35.51191,33.09166],[35.51999,33.08664],[35.52505,33.09545],[35.53802,33.09209],[35.54467,33.0825],[35.56072,33.08616],[35.56871,33.1082],[35.59417,33.11039]]]}},{"type":"Feature","properties":{"Code_Ezor":6,"Name":"נהריה - עכו"},"geometry":{"type":"Polygon","coordinates":[[[35.37814,33.05502],[35.37976,33.04446],[35.36383,33.03631],[35.3735,33.00484],[35.39231,33.00652],[35.41582,32.99434],[35.42763,32.96355],[35.42307,32.95043],[35.39464,32.95],[35.38395,32.94386],[35.32422,32.96052],[35.30483,32.95368],[35.30432,32.94913],[35.28469,32.95136],[35.27137,32.95963],[35.26007,32.94862],[35.24127,32.95077],[35.23111,32.94714],[35.23294,32.94298],[35.22826,32.94045],[35.19563,32.94822],[35.19353,32.94057],[35.19796,32.93713],[35.16108,32.93225],[35.15657,32.91345],[35.13917,32.89629],[35.13949,32.88707],[35.12698,32.89083],[35.12725,32.8854],[35.11825,32.88718],[35.11024,32.90019],[35.10558,32.89458],[35.09329,32.89767],[35.09508,32.88802],[35.09135,32.88634],[35.07259,32.88861],[35.07501,32.91619],[35.06265,32.91444],[35.06188,32.92116],[35.07833,32.99192],[35.09649,33.0461],[35.10163,33.08113],[35.09907,33.0957],[35.15586,33.09155],[35.1555,33.08596],[35.17807,33.09417],[35.19338,33.08511],[35.20691,33.0884],[35.2117,33.0999],[35.23843,33.09212],[35.2812,33.10107],[35.29324,33.1079],[35.30094,33.10048],[35.31715,33.105],[35.32463,33.09573],[35.32077,33.08778],[35.34803,33.05976],[35.37814,33.05502]]]}},{"type":"Feature","properties":{"Code_Ezor":1,"Name":"כרמיאל"},"geometry":{"type":"Polygon","coordinates":[[[35.38802,32.94417],[35.40825,32.93151],[35.41538,32.93536],[35.40689,32.91705],[35.39631,32.91268],[35.38552,32.91699],[35.38642,32.90876],[35.37619,32.90528],[35.37542,32.89617],[35.38907,32.88233],[35.38528,32.87353],[35.39548,32.8583],[35.38445,32.84578],[35.39316,32.84509],[35.39626,32.83356],[35.38053,32.82544],[35.35557,32.8209],[35.35363,32.81528],[35.35875,32.80766],[35.35145,32.80507],[35.35306,32.79913],[35.30602,32.7899],[35.30312,32.78491],[35.27705,32.79891],[35.26744,32.792],[35.25021,32.79556],[35.24084,32.79174],[35.23673,32.79341],[35.23923,32.79869],[35.22897,32.79396],[35.22837,32.80506],[35.22431,32.80354],[35.22661,32.79638],[35.2153,32.80061],[35.21536,32.79475],[35.20409,32.79846],[35.20224,32.81278],[35.21004,32.8255],[35.21847,32.81903],[35.22965,32.81951],[35.22573,32.82724],[35.23552,32.84366],[35.22293,32.84486],[35.23305,32.85016],[35.22085,32.85902],[35.22489,32.86305],[35.21971,32.87881],[35.20407,32.88402],[35.19441,32.89563],[35.18846,32.89529],[35.17921,32.91148],[35.15464,32.91273],[35.16108,32.93225],[35.19796,32.93713],[35.19353,32.94057],[35.19563,32.94822],[35.22826,32.94045],[35.23294,32.94298],[35.23111,32.94714],[35.24127,32.95077],[35.26007,32.94862],[35.27137,32.95963],[35.28469,32.95136],[35.30432,32.94913],[35.30483,32.95368],[35.31418,32.9548],[35.31711,32.96006],[35.33355,32.96011],[35.38802,32.94417]]]}},{"type":"Feature","properties":{"Code_Ezor":2,"Name":"נצרת"},"geometry":{"type":"Polygon","coordinates":[[[35.22793,32.80256],[35.23042,32.79321],[35.23923,32.79869],[35.23673,32.79341],[35.24084,32.79174],[35.25021,32.79556],[35.26744,32.792],[35.27705,32.79891],[35.30301,32.78491],[35.30719,32.78602],[35.30602,32.7899],[35.34367,32.79949],[35.37813,32.79698],[35.3758,32.78855],[35.36234,32.78911],[35.36693,32.7772],[35.35461,32.77315],[35.35755,32.76242],[35.37525,32.76181],[35.38034,32.75712],[35.37487,32.75463],[35.3823,32.74869],[35.38183,32.7423],[35.39432,32.744],[35.40174,32.7364],[35.41151,32.73561],[35.41232,32.72475],[35.38577,32.72764],[35.37628,32.71863],[35.38397,32.69585],[35.37653,32.69083],[35.37742,32.68579],[35.39334,32.66902],[35.39683,32.67308],[35.39967,32.66508],[35.41694,32.66986],[35.44693,32.64754],[35.43707,32.63845],[35.4347,32.64635],[35.42465,32.6499],[35.42468,32.65576],[35.41108,32.64567],[35.39662,32.64363],[35.39621,32.63836],[35.38797,32.63379],[35.38492,32.63808],[35.38878,32.64051],[35.38374,32.64427],[35.3921,32.64222],[35.39154,32.65704],[35.3789,32.65226],[35.37533,32.64043],[35.35676,32.64702],[35.33965,32.63903],[35.32219,32.64181],[35.31976,32.65233],[35.32377,32.66291],[35.31595,32.66063],[35.3172,32.67242],[35.30775,32.67491],[35.31473,32.68334],[35.30568,32.68616],[35.2883,32.67279],[35.28406,32.67732],[35.26657,32.66922],[35.26427,32.67867],[35.25789,32.68018],[35.2636,32.69103],[35.25671,32.69254],[35.25588,32.69791],[35.24822,32.69307],[35.2239,32.69411],[35.2114,32.7074],[35.21437,32.71799],[35.18306,32.69109],[35.18356,32.70337],[35.17664,32.70569],[35.18241,32.7147],[35.17571,32.71438],[35.17442,32.72541],[35.16396,32.72478],[35.15869,32.73651],[35.16228,32.74391],[35.17142,32.74436],[35.17206,32.74668],[35.16607,32.74686],[35.16431,32.76894],[35.20221,32.76738],[35.21172,32.77223],[35.21523,32.79229],[35.20885,32.79527],[35.21536,32.79475],[35.21527,32.80061],[35.22661,32.79638],[35.22431,32.80354],[35.22793,32.80256]]]}},{"type":"Feature","properties":{"Code_Ezor":3,"Name":"טבריה"},"geometry":{"type":"Polygon","coordinates":[[[35.6382,32.95031],[35.63384,32.938],[35.64042,32.92393],[35.63303,32.91964],[35.63368,32.90475],[35.64691,32.90335],[35.65738,32.89549],[35.66107,32.88599],[35.65059,32.86766],[35.6505,32.81885],[35.64565,32.81035],[35.65568,32.80843],[35.65485,32.79283],[35.66246,32.77718],[35.64984,32.71459],[35.63765,32.7052],[35.63562,32.6878],[35.64888,32.68213],[35.65256,32.68556],[35.67199,32.69108],[35.67451,32.68499],[35.6634,32.68021],[35.65592,32.6853],[35.64515,32.67759],[35.63471,32.68637],[35.62696,32.67868],[35.60905,32.6767],[35.59818,32.66759],[35.60659,32.66027],[35.6057,32.65135],[35.59351,32.653],[35.58627,32.64156],[35.5801,32.64473],[35.57372,32.6407],[35.57118,32.64625],[35.56133,32.64612],[35.56798,32.64174],[35.56078,32.6377],[35.56796,32.63318],[35.56155,32.62485],[35.56776,32.62177],[35.57261,32.60956],[35.54007,32.61219],[35.54101,32.60754],[35.53378,32.60531],[35.5292,32.61216],[35.50231,32.61708],[35.46724,32.63198],[35.47034,32.6525],[35.4539,32.65318],[35.45146,32.65788],[35.4462,32.65152],[35.41535,32.67023],[35.40099,32.66459],[35.39683,32.67308],[35.39334,32.66902],[35.38104,32.67832],[35.37631,32.68966],[35.38358,32.69312],[35.38341,32.70251],[35.37736,32.70802],[35.37628,32.71863],[35.38577,32.72764],[35.41232,32.72485],[35.41151,32.73561],[35.40174,32.7364],[35.39432,32.744],[35.3819,32.74224],[35.3823,32.74869],[35.37487,32.75463],[35.37895,32.75914],[35.37285,32.76299],[35.35923,32.76039],[35.35461,32.77315],[35.36578,32.77544],[35.36234,32.78911],[35.3758,32.78855],[35.37813,32.79698],[35.35306,32.79913],[35.35145,32.80507],[35.35875,32.80766],[35.35363,32.81528],[35.35557,32.8209],[35.38053,32.82544],[35.39766,32.83805],[35.39316,32.84509],[35.38445,32.84578],[35.39548,32.8583],[35.38528,32.87353],[35.38907,32.88233],[35.37936,32.89214],[35.38851,32.89142],[35.38772,32.89982],[35.42639,32.89801],[35.42951,32.89061],[35.43552,32.89019],[35.4314,32.88883],[35.43568,32.88196],[35.43375,32.87666],[35.4259,32.87728],[35.42209,32.87145],[35.41537,32.87774],[35.42052,32.8612],[35.42694,32.85763],[35.43153,32.86844],[35.44794,32.85937],[35.44512,32.85608],[35.47444,32.8538],[35.48596,32.85707],[35.48287,32.86921],[35.48729,32.86986],[35.47401,32.87851],[35.4788,32.88738],[35.46844,32.89463],[35.47987,32.88917],[35.47894,32.89892],[35.50049,32.88707],[35.52338,32.88609],[35.5211,32.87738],[35.52778,32.87709],[35.53913,32.89329],[35.56514,32.89994],[35.57571,32.89715],[35.58867,32.91203],[35.5862,32.91684],[35.6106,32.92552],[35.61447,32.94162],[35.62436,32.9403],[35.62506,32.95913],[35.63837,32.95835],[35.6382,32.95031]]]}}]}